[{"OBJECT_NAME":"OBJECT A","OBJECT_ID":"2023-189A","EPOCH":"2026-03-09T22:59:06.381600","MEAN_MOTION":15.32403275,"ECCENTRICITY":0.00094831,"INCLINATION":97.4458,"RA_OF_ASC_NODE":86.5997,"ARG_OF_PERICENTER":249.5377,"MEAN_ANOMALY":110.4847,"EPHEMERIS_TYPE":0,"CLASSIFICATION_TYPE":"U","NORAD_CAT_ID":58502,"ELEMENT_SET_NO":999,"REV_AT_EPOCH":12601,"BSTAR":0.00019874471,"MEAN_MOTION_DOT":6.146e-5,"MEAN_MOTION_DDOT":0},{"OBJECT_NAME":"STARLINK-32784","OBJECT_ID":"2025-008W","EPOCH":"2026-03-09T22:06:29.211552","MEAN_MOTION":15.31114656,"ECCENTRICITY":0.00057395,"INCLINATION":42.9937,"RA_OF_ASC_NODE":275.4081,"ARG_OF_PERICENTER":294.7007,"MEAN_ANOMALY":65.3248,"EPHEMERIS_TYPE":0,"CLASSIFICATION_TYPE":"U","NORAD_CAT_ID":62607,"ELEMENT_SET_NO":999,"REV_AT_EPOCH":6567,"BSTAR":0.0029487401,"MEAN_MOTION_DOT":0.00091369,"MEAN_MOTION_DDOT":0}]
